#cP2022  5 30  0  0  0.00000000      96 ORBIT IGb14 HLM  IGS
## 2212  86400.00000000   900.00000000 59729 0.0000000000000
+   32   G01G02G03G04G05G06G07G08G09G10G11G12G13G14G15G16G17
+        G18G19G20G21G22G23G24G25G26G27G28G29G30G31G32  0  0
+          0  0  0  0  0  0  0  0  0  0  0  0  0  0  0  0  0
+          0  0  0  0  0  0  0  0  0  0  0  0  0  0  0  0  0
+          0  0  0  0  0  0  0  0  0  0  0  0  0  0  0  0  0
++         2  2  2  2  1  2  2  2  2  2  2  2  2  2  1  2  2
++         2  2  1  2  1  2  2  2  3  2  2  2  1  2  2  0  0
++         0  0  0  0  0  0  0  0  0  0  0  0  0  0  0  0  0
++         0  0  0  0  0  0  0  0  0  0  0  0  0  0  0  0  0
++         0  0  0  0  0  0  0  0  0  0  0  0  0  0  0  0  0
%c G  cc GPS ccc cccc cccc cccc cccc ccccc ccccc ccccc ccccc
%c cc cc ccc ccc cccc cccc cccc cccc ccccc ccccc ccccc ccccc
%f  1.2500000  1.025000000  0.00000000000  0.000000000000000
%f  0.0000000  0.000000000  0.00000000000  0.000000000000000
%i    0    0    0    0      0      0      0      0         0
%i    0    0    0    0      0      0      0      0         0
/* FINAL ORBIT COMBINATION FROM WEIGHTED AVERAGE OF:        
/* cod emr esa gfz grg jpl mit ngs sio                      
/* REFERENCED TO IGS TIME (IGST) AND TO WEIGHTED MEAN POLE: 
/* PCV:IGS14_2196 OL/AL:FES2004  NONE     Y  ORB:CMB CLK:CMB
*  2022  5 30  1 30  0.00000000
PG01 -13888.706089  22323.110857   1689.679299    352.222276  4  7  7 109       
PG02  17110.561146  -6763.947016 -18561.226622   -653.035311  7  3  5  98       
PG03 -14756.768666  12669.654528 -18144.278864   -261.657956  6  6  6  90       
PG04  -6130.471276  16903.874964 -19507.429759   -162.364544  6  6  7 123       
PG05  25339.306364  -5687.731507   5772.454718    -83.628680  6  5  6  72       
PG06  11071.085854   9914.409964 -21946.222443    322.917898  6  8  6  85       
PG07  -2325.881097  23103.478350  12828.535973    322.218317  6  5  5  24       
PG08 -12362.524039   8758.756117  21766.936313    -69.997459  4  6  3  84       
PG09   3629.651645  22893.928129 -13002.258018   -332.743406  4  5  3  93       
PG10 -16040.952639 -11750.380865  17898.527383   -434.143688  4  4  4  71       
PG11  18157.250866  -4349.151478 -18885.860713    -19.390005 10  8  7  69       
PG12  19036.775149  -9954.652977 -15816.607762   -223.134423  7  6  6  69       
PG13  16303.281282   1593.164761  20791.246680    320.596446  5  6  6 101       
PG14  14355.509851  13104.433945  18140.469358   -110.178329  5  6  8  75       
PG15  11198.699822 -11046.468658  20975.271128    -57.287296  5  3  4  99       
PG16 -26749.526202   -868.316870   1315.534945   -504.983282  8  7  7 111       
PG17  13615.722504  22613.137480  -2238.510729    618.780186  7  4  4  66       
PG18   3793.360152 -23263.148819  12124.011011    156.619896  6  6  7 100       
PG19  16530.066255  18115.122902 -10729.540600    163.917984  5  6  6  78       
PG20  25842.515795   -646.341909  -5533.853039    513.728539  5  6  3  95       
PG21 -16900.862715  16067.081540  12678.269486    161.274672  7  8  7  81       
PG22 -17340.592666 -16017.984375 -11930.013702    267.312302  6  4  3  95       
PG23  -4338.474322 -14694.881618  21694.710256    -24.990080  5  5  5  91       
PG24  14459.770646 -21034.656705   6215.582338    231.638480  6  3  5  96       
PG25   4014.073496 -15326.598727 -21572.930420    331.014579 10  7  4  73       
PG26 -24429.595853  -5126.847834  -9602.702378    209.017909  8  9  7 105       
PG27 -18030.469942  -4893.152504  18816.173985    209.993816  5  6  3  85       
PG28  21221.283997  10162.741430  12601.325889    348.605890  7  7  7  64       
PG29  -1889.713366 -23022.551702 -13100.733679   -518.796047  6  6  6  97       
PG30   5554.956068  18042.931513  18671.135192   -529.671000  5  3  6  71       
PG31 -13476.561501  -7460.747104 -21768.469754   -179.657202  5  9  4  95       
PG32 -16396.634315 -20513.005556  -4455.013660   -138.725398  4  7  5  97       
*  2022  5 30  1 45  0.00000000
PG01 -13886.971175  21877.585627   4590.142079    352.215027  3  7  7 103       
PG02  16334.630739  -4575.876421 -19827.669304   -653.035024  6  3  5  77       
PG03 -16717.081107  12641.451730 -16354.951430   -261.669421  6  6  6  73       
PG04  -7410.360225  14990.726171 -20603.626655   -162.361086  7  5  7 120       
PG05  25877.782650  -5499.620248   2983.042574    -83.629962  6  5  6  39       
PG06   9904.304236  12110.708264 -21389.362360    322.931398  6  8  6  86       
PG07  -3149.298284  24134.339395  10411.934556    322.218143  6  5  5  52       
PG08 -13776.788188   6705.754818  21678.160249    -69.999562  3  7  3  82       
PG09   2552.125035  21687.005539 -15161.650300   -332.740542  5  5  4  95       
PG10 -13955.035646 -11971.157957  19421.244384   -434.157556  4  5  4  72       
PG11  17138.559802  -2359.147148 -20150.749279    -19.386648  9  8  7  74       
PG12  20682.078582  -9760.022020 -13682.932632   -223.139771  7  6  6  53       
PG13  17239.340699   3744.293207  19756.942451    320.602561  5  6  6 101       
PG14  12203.219149  13275.197179  19529.829570   -110.179402  5  6  8  59       
PG15  12832.601470  -9155.501471  20978.250177    -57.284670  4  3  4  82       
PG16 -26760.477968  -1064.784228  -1530.456080   -504.986210  7  7  7 109       
PG17  13501.390014  22836.817540    653.608194    618.784512  7  4  4  90       
PG18   4556.385523 -24270.414416   9621.759371    156.610579  6  6  7  93       
PG19  16853.148016  19115.483046  -8129.071245    163.922381  5  6  6  82       
PG20  25131.080519   -179.087122  -8218.193016    513.727320  5  6  3  92       
PG21 -16539.650974  14584.076104  14925.032125    161.274734  7  8  7  79       
PG22 -17755.139723 -17243.108307  -9456.895557    267.318184  6  4  3  86       
PG23  -1855.467935 -14916.153831  21888.029523    -24.992097  5  5  4  70       
PG24  14433.809440 -20060.149207   8856.213856    231.631640  6  3  5  96       
PG25   6389.662591 -15406.839861 -20900.005550    331.018888 10  7  4  72       
PG26 -23245.917501  -5515.071381 -12014.001336    209.020117  8  9  7 102       
PG27 -19081.204602  -6697.260686  17207.270649    209.998073  5  5  3  79       
PG28  19713.850933  10291.074067  14857.081806    348.599170  7  6  7  60       
PG29   -972.924568 -21681.976569 -15316.119669   -518.799440  6  7  6  78       
PG30   4433.793813  19768.246936  17131.810751   -529.672119  5  2  6  67       
PG31 -12287.426659  -9610.862233 -21586.359945   -179.658140  5  9  5  77       
PG32 -16391.276752 -20953.288188  -1644.515079   -138.733492  4  7  4  85       
*  2022  5 30  2  0  0.00000000
PG01 -13777.288357  21131.304013   7409.366551    352.207778  4  8  7 104       
PG02  15630.420857  -2227.131393 -20734.359252   -653.034837  6  3  4  67       
PG03 -18460.473596  12693.851436 -14284.958739   -261.680811  6  6  6  78       
PG04  -8846.642517  13061.604516 -21344.316853   -162.357640  7  6  7 123       
PG05  26110.831502  -5291.764644    142.630750    -83.630744  6  5  6  60       
PG06   8896.062546  14291.998965 -20461.972875    322.944944  6  8  6  85       
PG07  -3810.284782  24946.560229   7814.401937    322.217957  5  5  5  58       
PG08 -15275.617547   4757.334832  21215.795987    -69.999866  3  7  2  78       
PG09   1274.879620  20355.473668 -17060.826627   -332.737772  5  5  4  82       
PG10 -11731.390705 -12324.632818  20616.583341   -434.171230  3  5  4  64       
PG11  16170.441669   -208.060968 -21068.830240    -19.383276  8  8  7  91       
PG12  22084.163140  -9641.199976 -11316.169255   -223.145074  7  6  6  50       
PG13  18221.350598   5720.440979  18379.837696    320.608906  5  6  5  97       
PG14   9924.032369  13566.150166  20583.923560   -110.180466  6  7  8  83       
PG15  14534.816699  -7359.616675  20606.960504    -57.282113  4  4  4  80       
PG16 -26465.094173  -1266.728410  -4350.898330   -504.988805  6  7  7 108       
PG17  13223.471490  22789.979024   3534.492725    618.788433  7  5  4  76       
PG18   5142.560014 -25049.819625   6952.832545    156.601152  7  6  7  87       
PG19  17077.758076  19839.580721  -5391.644426    163.926897  6  6  6  89       
PG20  24157.695258    401.258522 -10759.184577    513.726577  5  6  4  87       
PG21 -16177.105208  12866.772457  16916.931848    161.274532  6  8  7  88       
PG22 -18080.900943 -18194.474664  -6819.781666    267.323629  6  4  3  85       
PG23    613.750759 -15269.872504  21704.393998    -24.994118  5  5  4  77       
PG24  14358.764718 -18807.355283  11338.992093    231.624802  6  4  5  95       
PG25   8666.925208 -15599.034855 -19874.635731    331.023279  9  7  4  60       
PG26 -21827.491046  -6004.923312 -14222.704596    209.022336  8  9  7  98       
PG27 -20107.470426  -8278.214120  15301.979449    210.002422  5  6  3  75       
PG28  17980.837884  10502.990562  16862.428484    348.593250  7  6  6  49       
PG29    142.294369 -20194.795096 -17268.043014   -518.803038  6  7  5  79       
PG30   3473.989379  21373.674785  15296.743215   -529.673266  4  2  6  81       
PG31 -11225.488285 -11786.018346 -21035.857238   -179.659811  5  8  5  66       
PG32 -16217.999990 -21138.152166   1194.007862   -138.741593  4  7  4  76       
EOF
